start=new Date('2022-08-31T00:00:00.000Z').valueOf();
sats=[{"NORAD_CAT_ID":"53004","BSTAR":"-0.02530600000000","INCLINATION":"53.2177","ELEMENT_SET_NO":"999","FILE":"3552161","DECAY_DATE":null,"RA_OF_ASC_NODE":"112.6274","MEAN_ELEMENT_THEORY":"SGP4","CENTER_NAME":"EARTH","EPHEMERIS_TYPE":"0","GP_ID":"211337778","MEAN_MOTION_DDOT":"0.0000000000000","SEMIMAJOR_AXIS":"6810.510","EPOCH":"2022-08-30T22:00:00.999936","APOAPSIS":"433.255","TLE_LINE1":"1 53004U 22076U   22242.91667824 -.01099373  00000-0 -25306-1 0  9995","REF_FRAME":"TEME","ECCENTRICITY":"0.00012920","MEAN_MOTION":"15.44661544","REV_AT_EPOCH":"903","TIME_SYSTEM":"UTC","RCS_SIZE":"LARGE","LAUNCH_DATE":"2022-07-07","MEAN_MOTION_DOT":"-0.01099373","PERIAPSIS":"431.495","MEAN_ANOMALY":"75.1577","OBJECT_TYPE":"PAYLOAD","COUNTRY_CODE":"US","SITE":"AFETR","TLE_LINE2":"2 53004  53.2177 112.6274 0001292  89.0889  75.1577 15.44661544  9032","CLASSIFICATION_TYPE":"U","ARG_OF_PERICENTER":"89.0889","PERIOD":"93.224","OBJECT_NAME":"STARLINK-4253","OBJECT_ID":"2022-076U"},{"MEAN_ELEMENT_THEORY":"SGP4","RA_OF_ASC_NODE":"112.6808","GP_ID":"211362999","MEAN_MOTION_DDOT":"0.0000000000000","EPHEMERIS_TYPE":"0","CENTER_NAME":"EARTH","INCLINATION":"53.2179","NORAD_CAT_ID":"53005","BSTAR":"-0.02437400000000","FILE":"3552179","DECAY_DATE":null,"ELEMENT_SET_NO":"999","TLE_LINE1":"1 53005U 22076V   22242.91667824 -.01113268  00000-0 -24374-1 0  9990","REF_FRAME":"TEME","EPOCH":"2022-08-30T22:00:00.999936","SEMIMAJOR_AXIS":"6806.147","APOAPSIS":"428.891","REV_AT_EPOCH":"130","TIME_SYSTEM":"UTC","ECCENTRICITY":"0.00012910","MEAN_MOTION":"15.46146965","TLE_LINE2":"2 53005  53.2179 112.6808 0001291  74.4415 104.5522 15.46146965  1306","SITE":"AFETR","OBJECT_NAME":"STARLINK-4288","OBJECT_ID":"2022-076V","PERIOD":"93.135","ARG_OF_PERICENTER":"74.4415","CLASSIFICATION_TYPE":"U","MEAN_ANOMALY":"104.5522","LAUNCH_DATE":"2022-07-07","PERIAPSIS":"427.133","MEAN_MOTION_DOT":"-0.01113268","RCS_SIZE":"LARGE","COUNTRY_CODE":"US","OBJECT_TYPE":"PAYLOAD"},{"INCLINATION":"53.2176","BSTAR":"-0.02478300000000","NORAD_CAT_ID":"53006","ELEMENT_SET_NO":"999","DECAY_DATE":null,"FILE":"3552179","MEAN_ELEMENT_THEORY":"SGP4","RA_OF_ASC_NODE":"112.6589","EPHEMERIS_TYPE":"0","GP_ID":"211363861","MEAN_MOTION_DDOT":"0.0000000000000","CENTER_NAME":"EARTH","EPOCH":"2022-08-30T22:00:00.999936","SEMIMAJOR_AXIS":"6807.888","APOAPSIS":"430.672","TLE_LINE1":"1 53006U 22076W   22242.91667824 -.01109335  00000-0 -24783-1 0  9995","REF_FRAME":"TEME","ECCENTRICITY":"0.00013490","MEAN_MOTION":"15.45553827","REV_AT_EPOCH":"130","TIME_SYSTEM":"UTC","MEAN_ANOMALY":"100.1002","RCS_SIZE":"LARGE","MEAN_MOTION_DOT":"-0.01109335","LAUNCH_DATE":"2022-07-07","PERIAPSIS":"428.835","COUNTRY_CODE":"US","OBJECT_TYPE":"PAYLOAD","TLE_LINE2":"2 53006  53.2176 112.6589 0001349  73.4077 100.1002 15.45553827  1300","SITE":"AFETR","PERIOD":"93.170","ARG_OF_PERICENTER":"73.4077","OBJECT_ID":"2022-076W","OBJECT_NAME":"STARLINK-4290","CLASSIFICATION_TYPE":"U"},{"OBJECT_TYPE":"PAYLOAD","COUNTRY_CODE":"US","RCS_SIZE":"LARGE","LAUNCH_DATE":"2022-07-07","MEAN_MOTION_DOT":"-0.01089655","PERIAPSIS":"425.454","MEAN_ANOMALY":"110.1685","CLASSIFICATION_TYPE":"U","ARG_OF_PERICENTER":"74.5417","PERIOD":"93.100","OBJECT_ID":"2022-076X","OBJECT_NAME":"STARLINK-4215","SITE":"AFETR","TLE_LINE2":"2 53007  53.2177 112.7008 0001296  74.5417 110.1685 15.46718391  9036","MEAN_MOTION":"15.46718391","ECCENTRICITY":"0.00012960","TIME_SYSTEM":"UTC","REV_AT_EPOCH":"903","APOAPSIS":"427.217","SEMIMAJOR_AXIS":"6804.471","EPOCH":"2022-08-30T22:00:00.999936","REF_FRAME":"TEME","TLE_LINE1":"1 53007U 22076X   22242.91667824 -.01089655  00000-0 -23708-1 0  9994","ELEMENT_SET_NO":"999","FILE":"3552161","DECAY_DATE":null,"BSTAR":"-0.02370800000000","NORAD_CAT_ID":"53007","INCLINATION":"53.2177","CENTER_NAME":"EARTH","EPHEMERIS_TYPE":"0","MEAN_MOTION_DDOT":"0.0000000000000","GP_ID":"211337784","MEAN_ELEMENT_THEORY":"SGP4","RA_OF_ASC_NODE":"112.7008"},{"OBJECT_TYPE":"PAYLOAD","COUNTRY_CODE":"US","LAUNCH_DATE":"2022-07-07","PERIAPSIS":"426.419","MEAN_MOTION_DOT":"-0.01147697","RCS_SIZE":"LARGE","MEAN_ANOMALY":"103.1045","CLASSIFICATION_TYPE":"U","OBJECT_NAME":"STARLINK-4275","OBJECT_ID":"2022-076Y","PERIOD":"93.120","ARG_OF_PERICENTER":"77.9658","SITE":"AFETR","TLE_LINE2":"2 53008  53.2179 112.6882 0001300  77.9658 103.1045 15.46388442  9030","MEAN_MOTION":"15.46388442","ECCENTRICITY":"0.00013000","TIME_SYSTEM":"UTC","REV_AT_EPOCH":"903","APOAPSIS":"428.188","SEMIMAJOR_AXIS":"6805.438","EPOCH":"2022-08-30T22:00:00.999936","REF_FRAME":"TEME","TLE_LINE1":"1 53008U 22076Y   22242.91667824 -.01147697  00000-0 -24987-1 0  9996","DECAY_DATE":null,"FILE":"3551990","ELEMENT_SET_NO":"999","NORAD_CAT_ID":"53008","BSTAR":"-0.02498700000000","INCLINATION":"53.2179","CENTER_NAME":"EARTH","MEAN_MOTION_DDOT":"0.0000000000000","GP_ID":"211333803","EPHEMERIS_TYPE":"0","RA_OF_ASC_NODE":"112.6882","MEAN_ELEMENT_THEORY":"SGP4"},{"REV_AT_EPOCH":"130","TIME_SYSTEM":"UTC","ECCENTRICITY":"0.00020950","MEAN_MOTION":"15.73235857","SITE":"AFETR","TLE_LINE2":"2 53009  53.2148 110.5231 0002095  32.2963 102.8039 15.73235857  1309","CLASSIFICATION_TYPE":"U","OBJECT_NAME":"STARLINK-4277","OBJECT_ID":"2022-076Z","PERIOD":"91.531","ARG_OF_PERICENTER":"32.2963","MEAN_MOTION_DOT":"0.00002147","LAUNCH_DATE":"2022-07-07","PERIAPSIS":"348.248","RCS_SIZE":"LARGE","MEAN_ANOMALY":"102.8039","OBJECT_TYPE":"PAYLOAD","COUNTRY_CODE":"US","MEAN_ELEMENT_THEORY":"SGP4","RA_OF_ASC_NODE":"110.5231","CENTER_NAME":"EARTH","GP_ID":"211363418","MEAN_MOTION_DDOT":"0.0000000000000","EPHEMERIS_TYPE":"0","BSTAR":"0.00001969200000","NORAD_CAT_ID":"53009","INCLINATION":"53.2148","FILE":"3552179","DECAY_DATE":null,"ELEMENT_SET_NO":"999","TLE_LINE1":"1 53009U 22076Z   22242.91667824  .00002147  00000-0  19692-4 0  9994","REF_FRAME":"TEME","SEMIMAJOR_AXIS":"6727.793","EPOCH":"2022-08-30T22:00:00.999936","APOAPSIS":"351.067"},{"CENTER_NAME":"EARTH","GP_ID":"211363706","MEAN_MOTION_DDOT":"0.0000000000000","EPHEMERIS_TYPE":"0","RA_OF_ASC_NODE":"112.6900","MEAN_ELEMENT_THEORY":"SGP4","DECAY_DATE":null,"FILE":"3552179","ELEMENT_SET_NO":"999","BSTAR":"-0.02520800000000","NORAD_CAT_ID":"53010","INCLINATION":"53.2179","REF_FRAME":"TEME","TLE_LINE1":"1 53010U 22076AA  22242.91667824 -.01159869  00000-0 -25208-1 0  9990","APOAPSIS":"428.106","SEMIMAJOR_AXIS":"6805.213","EPOCH":"2022-08-30T22:00:00.999936","TIME_SYSTEM":"UTC","REV_AT_EPOCH":"130","MEAN_MOTION":"15.46465218","ECCENTRICITY":"0.00015100","CLASSIFICATION_TYPE":"U","OBJECT_ID":"2022-076AA","OBJECT_NAME":"STARLINK-4263","ARG_OF_PERICENTER":"59.5500","PERIOD":"93.116","SITE":"AFETR","TLE_LINE2":"2 53010  53.2179 112.6900 0001510  59.5500 122.7323 15.46465218  1304","OBJECT_TYPE":"PAYLOAD","COUNTRY_CODE":"US","LAUNCH_DATE":"2022-07-07","MEAN_MOTION_DOT":"-0.01159869","PERIAPSIS":"426.051","RCS_SIZE":"LARGE","MEAN_ANOMALY":"122.7323"},{"DECAY_DATE":null,"FILE":"3552179","ELEMENT_SET_NO":"999","INCLINATION":"53.2149","NORAD_CAT_ID":"53011","BSTAR":"-0.00009581300000","GP_ID":"211363562","MEAN_MOTION_DDOT":"0.0000000000000","EPHEMERIS_TYPE":"0","CENTER_NAME":"EARTH","MEAN_ELEMENT_THEORY":"SGP4","RA_OF_ASC_NODE":"110.5219","APOAPSIS":"351.222","EPOCH":"2022-08-30T22:00:00.999936","SEMIMAJOR_AXIS":"6727.871","REF_FRAME":"TEME","TLE_LINE1":"1 53011U 22076AB  22242.91667824 -.00014052  00000-0 -95813-4 0  9996","MEAN_MOTION":"15.73208621","ECCENTRICITY":"0.00022100","TIME_SYSTEM":"UTC","REV_AT_EPOCH":"130","COUNTRY_CODE":"US","OBJECT_TYPE":"PAYLOAD","MEAN_ANOMALY":"116.8945","LAUNCH_DATE":"2022-07-07","PERIAPSIS":"348.249","MEAN_MOTION_DOT":"-0.00014052","RCS_SIZE":"LARGE","OBJECT_ID":"2022-076AB","OBJECT_NAME":"STARLINK-4265","ARG_OF_PERICENTER":"18.9318","PERIOD":"91.533","CLASSIFICATION_TYPE":"U","TLE_LINE2":"2 53011  53.2149 110.5219 0002210  18.9318 116.8945 15.73208621  1303","SITE":"AFETR"},{"TLE_LINE2":"2 53012  53.2179 112.7111 0001382  80.7367 106.2076 15.47076399  9034","SITE":"AFETR","OBJECT_NAME":"STARLINK-4271","OBJECT_ID":"2022-076AC","ARG_OF_PERICENTER":"80.7367","PERIOD":"93.079","CLASSIFICATION_TYPE":"U","MEAN_ANOMALY":"106.2076","LAUNCH_DATE":"2022-07-07","MEAN_MOTION_DOT":"-0.01187113","PERIAPSIS":"424.346","RCS_SIZE":"LARGE","COUNTRY_CODE":"US","OBJECT_TYPE":"PAYLOAD","REV_AT_EPOCH":"903","TIME_SYSTEM":"UTC","ECCENTRICITY":"0.00013820","MEAN_MOTION":"15.47076399","TLE_LINE1":"1 53012U 22076AC  22242.91667824 -.01187113  00000-0 -25313-1 0  9992","REF_FRAME":"TEME","EPOCH":"2022-08-30T22:00:00.999936","SEMIMAJOR_AXIS":"6803.421","APOAPSIS":"426.226","RA_OF_ASC_NODE":"112.7111","MEAN_ELEMENT_THEORY":"SGP4","GP_ID":"211338139","MEAN_MOTION_DDOT":"0.0000000000000","EPHEMERIS_TYPE":"0","CENTER_NAME":"EARTH","INCLINATION":"53.2179","BSTAR":"-0.02531300000000","NORAD_CAT_ID":"53012","DECAY_DATE":null,"FILE":"3552166","ELEMENT_SET_NO":"999"},{"EPOCH":"2022-08-30T22:00:00.999936","SEMIMAJOR_AXIS":"6727.870","APOAPSIS":"350.896","TLE_LINE1":"1 53013U 22076AD  22242.91667824 -.00053997  00000-0 -38261-3 0  9992","REF_FRAME":"TEME","INCLINATION":"53.2162","BSTAR":"-0.00038261000000","NORAD_CAT_ID":"53013","DECAY_DATE":null,"FILE":"3552166","ELEMENT_SET_NO":"999","RA_OF_ASC_NODE":"110.5188","MEAN_ELEMENT_THEORY":"SGP4","GP_ID":"211338275","MEAN_MOTION_DDOT":"0.0000000000000","EPHEMERIS_TYPE":"0","CENTER_NAME":"EARTH","MEAN_ANOMALY":"102.3297","MEAN_MOTION_DOT":"-0.00053997","LAUNCH_DATE":"2022-07-07","PERIAPSIS":"348.574","RCS_SIZE":"LARGE","COUNTRY_CODE":"US","OBJECT_TYPE":"PAYLOAD","TLE_LINE2":"2 53013  53.2162 110.5188 0001726  35.3383 102.3297 15.73208880  9058","SITE":"AFETR","OBJECT_ID":"2022-076AD","OBJECT_NAME":"STARLINK-4177","ARG_OF_PERICENTER":"35.3383","PERIOD":"91.533","CLASSIFICATION_TYPE":"U","ECCENTRICITY":"0.00017260","MEAN_MOTION":"15.73208880","REV_AT_EPOCH":"905","TIME_SYSTEM":"UTC"}];
